[{"OBJECT_NAME":"STARLINK-35529","OBJECT_ID":"2025-245AB","EPOCH":"2026-03-09T22:14:37.857120","MEAN_MOTION":15.30209425,"ECCENTRICITY":0.00010224,"INCLINATION":53.158,"RA_OF_ASC_NODE":282.7297,"ARG_OF_PERICENTER":81.6798,"MEAN_ANOMALY":278.4319,"EPHEMERIS_TYPE":0,"CLASSIFICATION_TYPE":"U","NORAD_CAT_ID":66259,"ELEMENT_SET_NO":999,"REV_AT_EPOCH":2129,"BSTAR":0.00093163635,"MEAN_MOTION_DOT":0.00027343,"MEAN_MOTION_DDOT":0},{"OBJECT_NAME":"COSMOS 2535 DEB","OBJECT_ID":"2019-039M","EPOCH":"2026-03-08T03:25:35.903424","MEAN_MOTION":15.28322551,"ECCENTRICITY":0.0014917,"INCLINATION":97.5619,"RA_OF_ASC_NODE":139.2722,"ARG_OF_PERICENTER":329.0964,"MEAN_ANOMALY":30.9396,"EPHEMERIS_TYPE":0,"CLASSIFICATION_TYPE":"U","NORAD_CAT_ID":44641,"ELEMENT_SET_NO":999,"REV_AT_EPOCH":35167,"BSTAR":0.0011539757,"MEAN_MOTION_DOT":0.0003196,"MEAN_MOTION_DDOT":0}]
